start=new Date('2023-04-19T00:00:00.000Z').valueOf();
sats=[{"MEAN_MOTION":"15.06388211","RA_OF_ASC_NODE":"291.7784","PERIOD":"95.593","CLASSIFICATION_TYPE":"U","RCS_SIZE":"LARGE","MEAN_MOTION_DDOT":"0.0000000000000","INCLINATION":"53.0533","DECAY_DATE":null,"GP_ID":"230329269","REV_AT_EPOCH":"11773","COUNTRY_CODE":"US","CENTER_NAME":"EARTH","ARG_OF_PERICENTER":"71.4700","ELEMENT_SET_NO":"999","EPOCH":"2023-04-18T18:44:01.267008","NORAD_CAT_ID":"47837","APOAPSIS":"548.080","OBJECT_ID":"2021-018BC","MEAN_ELEMENT_THEORY":"SGP4","REF_FRAME":"TEME","MEAN_ANOMALY":"288.6419","PERIAPSIS":"546.419","SEMIMAJOR_AXIS":"6925.385","OBJECT_NAME":"STARLINK-2427","SITE":"AFETR","ECCENTRICITY":"0.00011990","BSTAR":"0.00188050000000","FILE":"3889987","OBJECT_TYPE":"PAYLOAD","TIME_SYSTEM":"UTC","TLE_LINE2":"2 47837  53.0533 291.7784 0001199  71.4700 288.6419 15.06388211117739","TLE_LINE1":"1 47837U 21018BC  23108.78057022  .00027831  00000-0  18805-2 0  9991","MEAN_MOTION_DOT":"0.00027831","LAUNCH_DATE":"2021-03-11","EPHEMERIS_TYPE":"0"},{"FILE":"3889987","OBJECT_TYPE":"PAYLOAD","TLE_LINE2":"2 47838  53.0532 311.4211 0000690  77.4524 282.6542 15.06423781117451","TIME_SYSTEM":"UTC","BSTAR":"0.00217600000000","EPHEMERIS_TYPE":"0","TLE_LINE1":"1 47838U 21018BD  23108.85980937  .00032300  00000-0  21760-2 0  9991","MEAN_MOTION_DOT":"0.00032300","LAUNCH_DATE":"2021-03-11","OBJECT_ID":"2021-018BD","MEAN_ELEMENT_THEORY":"SGP4","REF_FRAME":"TEME","MEAN_ANOMALY":"282.6542","PERIAPSIS":"546.663","SEMIMAJOR_AXIS":"6925.276","SITE":"AFETR","OBJECT_NAME":"STARLINK-2429","ECCENTRICITY":"0.00006900","REV_AT_EPOCH":"11745","COUNTRY_CODE":"US","CENTER_NAME":"EARTH","ARG_OF_PERICENTER":"77.4524","GP_ID":"230329018","DECAY_DATE":null,"NORAD_CAT_ID":"47838","APOAPSIS":"547.619","ELEMENT_SET_NO":"999","EPOCH":"2023-04-18T20:38:07.529568","PERIOD":"95.591","CLASSIFICATION_TYPE":"U","MEAN_MOTION":"15.06423781","RA_OF_ASC_NODE":"311.4211","MEAN_MOTION_DDOT":"0.0000000000000","RCS_SIZE":"LARGE","INCLINATION":"53.0532"},{"MEAN_MOTION_DDOT":"0.0000000000000","RCS_SIZE":"LARGE","INCLINATION":"53.0535","CLASSIFICATION_TYPE":"U","PERIOD":"95.591","RA_OF_ASC_NODE":"281.5953","MEAN_MOTION":"15.06425628","APOAPSIS":"547.856","NORAD_CAT_ID":"47839","EPOCH":"2023-04-18T19:43:42.779424","ELEMENT_SET_NO":"999","CENTER_NAME":"EARTH","ARG_OF_PERICENTER":"70.6260","REV_AT_EPOCH":"11754","COUNTRY_CODE":"US","DECAY_DATE":null,"GP_ID":"230306862","SEMIMAJOR_AXIS":"6925.270","OBJECT_NAME":"STARLINK-2431","SITE":"AFETR","ECCENTRICITY":"0.00010410","PERIAPSIS":"546.414","MEAN_ANOMALY":"289.4842","OBJECT_ID":"2021-018BE","MEAN_ELEMENT_THEORY":"SGP4","REF_FRAME":"TEME","EPHEMERIS_TYPE":"0","MEAN_MOTION_DOT":"0.00029691","LAUNCH_DATE":"2021-03-11","TLE_LINE1":"1 47839U 21018BE  23108.82202291  .00029691  00000-0  20024-2 0  9990","TLE_LINE2":"2 47839  53.0535 281.5953 0001041  70.6260 289.4842 15.06425628117548","TIME_SYSTEM":"UTC","FILE":"3889884","OBJECT_TYPE":"PAYLOAD","BSTAR":"0.00200240000000"},{"APOAPSIS":"547.793","NORAD_CAT_ID":"47840","EPOCH":"2023-04-18T21:33:52.280928","ELEMENT_SET_NO":"999","ARG_OF_PERICENTER":"67.6756","CENTER_NAME":"EARTH","REV_AT_EPOCH":"11774","COUNTRY_CODE":"US","DECAY_DATE":null,"GP_ID":"230330516","RCS_SIZE":"LARGE","INCLINATION":"53.0526","MEAN_MOTION_DDOT":"0.0000000000000","CLASSIFICATION_TYPE":"U","PERIOD":"95.593","RA_OF_ASC_NODE":"291.2473","MEAN_MOTION":"15.06387634","EPHEMERIS_TYPE":"0","MEAN_MOTION_DOT":"0.00032964","LAUNCH_DATE":"2021-03-11","TLE_LINE1":"1 47840U 21018BF  23108.89852177  .00032964  00000-0  22223-2 0  9993","TIME_SYSTEM":"UTC","TLE_LINE2":"2 47840  53.0526 291.2473 0000782  67.6756 292.4315 15.06387634117747","FILE":"3889987","OBJECT_TYPE":"PAYLOAD","BSTAR":"0.00222230000000","SEMIMAJOR_AXIS":"6925.386","SITE":"AFETR","ECCENTRICITY":"0.00007820","OBJECT_NAME":"STARLINK-2432","PERIAPSIS":"546.710","MEAN_ANOMALY":"292.4315","OBJECT_ID":"2021-018BF","MEAN_ELEMENT_THEORY":"SGP4","REF_FRAME":"TEME"},{"APOAPSIS":"548.409","NORAD_CAT_ID":"47841","EPOCH":"2023-04-18T18:17:28.874400","ELEMENT_SET_NO":"999","ARG_OF_PERICENTER":"72.8994","CENTER_NAME":"EARTH","COUNTRY_CODE":"US","REV_AT_EPOCH":"11772","DECAY_DATE":null,"GP_ID":"230328770","RCS_SIZE":"LARGE","MEAN_MOTION_DDOT":"0.0000000000000","INCLINATION":"53.0530","CLASSIFICATION_TYPE":"U","PERIOD":"95.593","RA_OF_ASC_NODE":"291.8611","MEAN_MOTION":"15.06379421","EPHEMERIS_TYPE":"0","LAUNCH_DATE":"2021-03-11","MEAN_MOTION_DOT":"0.00011842","TLE_LINE1":"1 47841U 21018BG  23108.76213975  .00011842  00000-0  81297-3 0  9996","TIME_SYSTEM":"UTC","TLE_LINE2":"2 47841  53.0530 291.8611 0001635  72.8994 287.2173 15.06379421117720","OBJECT_TYPE":"PAYLOAD","FILE":"3889987","BSTAR":"0.00081297000000","SITE":"AFETR","ECCENTRICITY":"0.00016350","OBJECT_NAME":"STARLINK-2433","SEMIMAJOR_AXIS":"6925.412","PERIAPSIS":"546.144","MEAN_ANOMALY":"287.2173","REF_FRAME":"TEME","OBJECT_ID":"2021-018BG","MEAN_ELEMENT_THEORY":"SGP4"},{"INCLINATION":"53.0533","RCS_SIZE":"LARGE","MEAN_MOTION_DDOT":"0.0000000000000","MEAN_MOTION":"15.06431002","RA_OF_ASC_NODE":"321.3223","PERIOD":"95.590","CLASSIFICATION_TYPE":"U","ELEMENT_SET_NO":"999","EPOCH":"2023-04-18T21:08:38.152896","NORAD_CAT_ID":"47842","APOAPSIS":"547.443","GP_ID":"230329518","DECAY_DATE":null,"COUNTRY_CODE":"US","REV_AT_EPOCH":"11737","ARG_OF_PERICENTER":"22.9577","CENTER_NAME":"EARTH","PERIAPSIS":"546.794","SITE":"AFETR","ECCENTRICITY":"0.00004690","OBJECT_NAME":"STARLINK-2434","SEMIMAJOR_AXIS":"6925.254","REF_FRAME":"TEME","OBJECT_ID":"2021-018BH","MEAN_ELEMENT_THEORY":"SGP4","MEAN_ANOMALY":"337.1433","TLE_LINE1":"1 47842U 21018BH  23108.88099714  .00036454  00000-0  24515-2 0  9998","LAUNCH_DATE":"2021-03-11","MEAN_MOTION_DOT":"0.00036454","EPHEMERIS_TYPE":"0","BSTAR":"0.00245150000000","OBJECT_TYPE":"PAYLOAD","FILE":"3889987","TIME_SYSTEM":"UTC","TLE_LINE2":"2 47842  53.0533 321.3223 0000469  22.9577 337.1433 15.06431002117378"},{"TIME_SYSTEM":"UTC","TLE_LINE2":"2 47843  53.0532 316.4481 0000424  85.8795 274.2243 15.06388554117058","OBJECT_TYPE":"PAYLOAD","FILE":"3889987","BSTAR":"0.00172080000000","EPHEMERIS_TYPE":"0","LAUNCH_DATE":"2021-03-11","MEAN_MOTION_DOT":"0.00025435","TLE_LINE1":"1 47843U 21018BJ  23108.85383699  .00025435  00000-0  17208-2 0  9992","MEAN_ANOMALY":"274.2243","REF_FRAME":"TEME","OBJECT_ID":"2021-018BJ","MEAN_ELEMENT_THEORY":"SGP4","OBJECT_NAME":"STARLINK-2435","SITE":"AFETR","ECCENTRICITY":"0.00004240","SEMIMAJOR_AXIS":"6925.384","PERIAPSIS":"546.955","CENTER_NAME":"EARTH","ARG_OF_PERICENTER":"85.8795","COUNTRY_CODE":"US","REV_AT_EPOCH":"11705","DECAY_DATE":null,"GP_ID":"230329769","APOAPSIS":"547.542","NORAD_CAT_ID":"47843","EPOCH":"2023-04-18T20:29:31.515936","ELEMENT_SET_NO":"999","CLASSIFICATION_TYPE":"U","PERIOD":"95.593","RA_OF_ASC_NODE":"316.4481","MEAN_MOTION":"15.06388554","RCS_SIZE":"LARGE","INCLINATION":"53.0532","MEAN_MOTION_DDOT":"0.0000000000000"},{"BSTAR":"0.00225330000000","FILE":"3889987","OBJECT_TYPE":"PAYLOAD","TIME_SYSTEM":"UTC","TLE_LINE2":"2 47844  53.0543 311.4568 0001069  84.1951 275.9160 15.06434555117457","TLE_LINE1":"1 47844U 21018BK  23108.85242992  .00033473  00000-0  22533-2 0  9991","MEAN_MOTION_DOT":"0.00033473","LAUNCH_DATE":"2021-03-11","EPHEMERIS_TYPE":"0","MEAN_ELEMENT_THEORY":"SGP4","OBJECT_ID":"2021-018BK","REF_FRAME":"TEME","MEAN_ANOMALY":"275.9160","PERIAPSIS":"546.367","SEMIMAJOR_AXIS":"6925.243","SITE":"AFETR","OBJECT_NAME":"STARLINK-2446","ECCENTRICITY":"0.00010690","DECAY_DATE":null,"GP_ID":"230330017","REV_AT_EPOCH":"11745","COUNTRY_CODE":"US","ARG_OF_PERICENTER":"84.1951","CENTER_NAME":"EARTH","ELEMENT_SET_NO":"999","EPOCH":"2023-04-18T20:27:29.945088","NORAD_CAT_ID":"47844","APOAPSIS":"547.848","MEAN_MOTION":"15.06434555","RA_OF_ASC_NODE":"311.4568","PERIOD":"95.590","CLASSIFICATION_TYPE":"U","RCS_SIZE":"LARGE","MEAN_MOTION_DDOT":"0.0000000000000","INCLINATION":"53.0543"},{"EPHEMERIS_TYPE":"0","TLE_LINE1":"1 47845U 21018BL  23108.73818497  .00009619  00000-0  66405-3 0  9990","MEAN_MOTION_DOT":"0.00009619","LAUNCH_DATE":"2021-03-11","FILE":"3889987","OBJECT_TYPE":"PAYLOAD","TIME_SYSTEM":"UTC","TLE_LINE2":"2 47845  53.0543 311.9687 0001236 132.9707 227.1386 15.06384249117444","BSTAR":"0.00066405000000","PERIAPSIS":"546.406","SEMIMAJOR_AXIS":"6925.397","OBJECT_NAME":"STARLINK-2453","SITE":"AFETR","ECCENTRICITY":"0.00012360","OBJECT_ID":"2021-018BL","MEAN_ELEMENT_THEORY":"SGP4","REF_FRAME":"TEME","MEAN_ANOMALY":"227.1386","NORAD_CAT_ID":"47845","APOAPSIS":"548.118","ELEMENT_SET_NO":"999","EPOCH":"2023-04-18T17:42:59.181408","REV_AT_EPOCH":"11744","COUNTRY_CODE":"US","ARG_OF_PERICENTER":"132.9707","CENTER_NAME":"EARTH","DECAY_DATE":null,"GP_ID":"230329270","INCLINATION":"53.0543","RCS_SIZE":"LARGE","MEAN_MOTION_DDOT":"0.0000000000000","PERIOD":"95.593","CLASSIFICATION_TYPE":"U","MEAN_MOTION":"15.06384249","RA_OF_ASC_NODE":"311.9687"},{"ELEMENT_SET_NO":"999","EPOCH":"2023-04-18T20:47:23.040960","NORAD_CAT_ID":"47846","APOAPSIS":"547.943","DECAY_DATE":null,"GP_ID":"230329019","REV_AT_EPOCH":"11751","COUNTRY_CODE":"US","CENTER_NAME":"EARTH","ARG_OF_PERICENTER":"94.9370","MEAN_MOTION_DDOT":"0.0000000000000","RCS_SIZE":"LARGE","INCLINATION":"53.0540","MEAN_MOTION":"15.06418568","RA_OF_ASC_NODE":"311.3840","PERIOD":"95.591","CLASSIFICATION_TYPE":"U","TLE_LINE1":"1 47846U 21018BM  23108.86623890  .00031336  00000-0  21122-2 0  9993","MEAN_MOTION_DOT":"0.00031336","LAUNCH_DATE":"2021-03-11","EPHEMERIS_TYPE":"0","BSTAR":"0.00211220000000","FILE":"3889987","OBJECT_TYPE":"PAYLOAD","TIME_SYSTEM":"UTC","TLE_LINE2":"2 47846  53.0540 311.3840 0001135  94.9370 265.1748 15.06418568117512","PERIAPSIS":"546.371","SEMIMAJOR_AXIS":"6925.292","SITE":"AFETR","OBJECT_NAME":"STARLINK-2456","ECCENTRICITY":"0.00011350","MEAN_ELEMENT_THEORY":"SGP4","OBJECT_ID":"2021-018BM","REF_FRAME":"TEME","MEAN_ANOMALY":"265.1748"}];
